<?xml version="1.0" encoding="UTF-8"?>
<ndm xmlns:xsi="http://www.w3.org/2001/XMLSchema-instance" xsi:noNamespaceSchemaLocation="https://sanaregistry.org/r/ndmxml_unqualified/ndmxml-2.0.0-master-2.0.xsd">
<omm id="CCSDS_OMM_VERS" version="2.0">
<header><CREATION_DATE/><ORIGINATOR/></header><body><segment><metadata><OBJECT_NAME>ONEWEB-0653</OBJECT_NAME><OBJECT_ID>2023-029V</OBJECT_ID><CENTER_NAME>EARTH</CENTER_NAME><REF_FRAME>TEME</REF_FRAME><TIME_SYSTEM>UTC</TIME_SYSTEM><MEAN_ELEMENT_THEORY>SGP4</MEAN_ELEMENT_THEORY></metadata><data><meanElements><EPOCH>2025-02-20T22:29:14.980416</EPOCH><MEAN_MOTION>13.14504306</MEAN_MOTION><ECCENTRICITY>.0001662</ECCENTRICITY><INCLINATION>87.9037</INCLINATION><RA_OF_ASC_NODE>25.3881</RA_OF_ASC_NODE><ARG_OF_PERICENTER>88.1787</ARG_OF_PERICENTER><MEAN_ANOMALY>271.9533</MEAN_ANOMALY></meanElements><tleParameters><EPHEMERIS_TYPE>0</EPHEMERIS_TYPE><CLASSIFICATION_TYPE>U</CLASSIFICATION_TYPE><NORAD_CAT_ID>55815</NORAD_CAT_ID><ELEMENT_SET_NO>999</ELEMENT_SET_NO><REV_AT_EPOCH>9686</REV_AT_EPOCH><BSTAR>-.20314E-3</BSTAR><MEAN_MOTION_DOT>-.63E-6</MEAN_MOTION_DOT><MEAN_MOTION_DDOT>0</MEAN_MOTION_DDOT></tleParameters></data></segment></body></omm>
<omm id="CCSDS_OMM_VERS" version="2.0">
<header><CREATION_DATE/><ORIGINATOR/></header><body><segment><metadata><OBJECT_NAME>ONEWEB-0654</OBJECT_NAME><OBJECT_ID>2023-029W</OBJECT_ID><CENTER_NAME>EARTH</CENTER_NAME><REF_FRAME>TEME</REF_FRAME><TIME_SYSTEM>UTC</TIME_SYSTEM><MEAN_ELEMENT_THEORY>SGP4</MEAN_ELEMENT_THEORY></metadata><data><meanElements><EPOCH>2025-02-20T22:22:23.731968</EPOCH><MEAN_MOTION>13.14504658</MEAN_MOTION><ECCENTRICITY>.0001378</ECCENTRICITY><INCLINATION>87.9034</INCLINATION><RA_OF_ASC_NODE>25.3925</RA_OF_ASC_NODE><ARG_OF_PERICENTER>81.2932</ARG_OF_PERICENTER><MEAN_ANOMALY>278.8354</MEAN_ANOMALY></meanElements><tleParameters><EPHEMERIS_TYPE>0</EPHEMERIS_TYPE><CLASSIFICATION_TYPE>U</CLASSIFICATION_TYPE><NORAD_CAT_ID>55816</NORAD_CAT_ID><ELEMENT_SET_NO>999</ELEMENT_SET_NO><REV_AT_EPOCH>9688</REV_AT_EPOCH><BSTAR>-.67987E-4</BSTAR><MEAN_MOTION_DOT>-.12E-6</MEAN_MOTION_DOT><MEAN_MOTION_DDOT>0</MEAN_MOTION_DDOT></tleParameters></data></segment></body></omm>
<omm id="CCSDS_OMM_VERS" version="2.0">
<header><CREATION_DATE/><ORIGINATOR/></header><body><segment><metadata><OBJECT_NAME>ONEWEB-0656</OBJECT_NAME><OBJECT_ID>2023-029X</OBJECT_ID><CENTER_NAME>EARTH</CENTER_NAME><REF_FRAME>TEME</REF_FRAME><TIME_SYSTEM>UTC</TIME_SYSTEM><MEAN_ELEMENT_THEORY>SGP4</MEAN_ELEMENT_THEORY></metadata><data><meanElements><EPOCH>2025-02-20T09:22:54.288768</EPOCH><MEAN_MOTION>13.20771887</MEAN_MOTION><ECCENTRICITY>.0001451</ECCENTRICITY><INCLINATION>87.9307</INCLINATION><RA_OF_ASC_NODE>10.2821</RA_OF_ASC_NODE><ARG_OF_PERICENTER>65.2004</ARG_OF_PERICENTER><MEAN_ANOMALY>294.9280</MEAN_ANOMALY></meanElements><tleParameters><EPHEMERIS_TYPE>0</EPHEMERIS_TYPE><CLASSIFICATION_TYPE>U</CLASSIFICATION_TYPE><NORAD_CAT_ID>55817</NORAD_CAT_ID><ELEMENT_SET_NO>999</ELEMENT_SET_NO><REV_AT_EPOCH>9755</REV_AT_EPOCH><BSTAR>.24484E-4</BSTAR><MEAN_MOTION_DOT>.23E-6</MEAN_MOTION_DOT><MEAN_MOTION_DDOT>0</MEAN_MOTION_DDOT></tleParameters></data></segment></body></omm>
<omm id="CCSDS_OMM_VERS" version="2.0">
<header><CREATION_DATE/><ORIGINATOR/></header><body><segment><metadata><OBJECT_NAME>ONEWEB-0657</OBJECT_NAME><OBJECT_ID>2023-029Y</OBJECT_ID><CENTER_NAME>EARTH</CENTER_NAME><REF_FRAME>TEME</REF_FRAME><TIME_SYSTEM>UTC</TIME_SYSTEM><MEAN_ELEMENT_THEORY>SGP4</MEAN_ELEMENT_THEORY></metadata><data><meanElements><EPOCH>2025-02-20T11:37:58.453248</EPOCH><MEAN_MOTION>13.19726323</MEAN_MOTION><ECCENTRICITY>.0001904</ECCENTRICITY><INCLINATION>87.9171</INCLINATION><RA_OF_ASC_NODE>40.7317</RA_OF_ASC_NODE><ARG_OF_PERICENTER>61.6570</ARG_OF_PERICENTER><MEAN_ANOMALY>298.4754</MEAN_ANOMALY></meanElements><tleParameters><EPHEMERIS_TYPE>0</EPHEMERIS_TYPE><CLASSIFICATION_TYPE>U</CLASSIFICATION_TYPE><NORAD_CAT_ID>55818</NORAD_CAT_ID><ELEMENT_SET_NO>999</ELEMENT_SET_NO><REV_AT_EPOCH>9537</REV_AT_EPOCH><BSTAR>.10208E-3</BSTAR><MEAN_MOTION_DOT>.54E-6</MEAN_MOTION_DOT><MEAN_MOTION_DDOT>0</MEAN_MOTION_DDOT></tleParameters></data></segment></body></omm>
<omm id="CCSDS_OMM_VERS" version="2.0">
<header><CREATION_DATE/><ORIGINATOR/></header><body><segment><metadata><OBJECT_NAME>ONEWEB-0658</OBJECT_NAME><OBJECT_ID>2023-029Z</OBJECT_ID><CENTER_NAME>EARTH</CENTER_NAME><REF_FRAME>TEME</REF_FRAME><TIME_SYSTEM>UTC</TIME_SYSTEM><MEAN_ELEMENT_THEORY>SGP4</MEAN_ELEMENT_THEORY></metadata><data><meanElements><EPOCH>2025-02-20T22:26:13.009056</EPOCH><MEAN_MOTION>13.19726371</MEAN_MOTION><ECCENTRICITY>.0002434</ECCENTRICITY><INCLINATION>87.9170</INCLINATION><RA_OF_ASC_NODE>40.5762</RA_OF_ASC_NODE><ARG_OF_PERICENTER>86.9675</ARG_OF_PERICENTER><MEAN_ANOMALY>273.1736</MEAN_ANOMALY></meanElements><tleParameters><EPHEMERIS_TYPE>0</EPHEMERIS_TYPE><CLASSIFICATION_TYPE>U</CLASSIFICATION_TYPE><NORAD_CAT_ID>55819</NORAD_CAT_ID><ELEMENT_SET_NO>999</ELEMENT_SET_NO><REV_AT_EPOCH>9612</REV_AT_EPOCH><BSTAR>.11303E-3</BSTAR><MEAN_MOTION_DOT>.58E-6</MEAN_MOTION_DOT><MEAN_MOTION_DDOT>0</MEAN_MOTION_DDOT></tleParameters></data></segment></body></omm>
<omm id="CCSDS_OMM_VERS" version="2.0">
<header><CREATION_DATE/><ORIGINATOR/></header><body><segment><metadata><OBJECT_NAME>ONEWEB-0660</OBJECT_NAME><OBJECT_ID>2023-029AA</OBJECT_ID><CENTER_NAME>EARTH</CENTER_NAME><REF_FRAME>TEME</REF_FRAME><TIME_SYSTEM>UTC</TIME_SYSTEM><MEAN_ELEMENT_THEORY>SGP4</MEAN_ELEMENT_THEORY></metadata><data><meanElements><EPOCH>2025-02-20T21:50:27.084480</EPOCH><MEAN_MOTION>13.14501710</MEAN_MOTION><ECCENTRICITY>.0002049</ECCENTRICITY><INCLINATION>87.9032</INCLINATION><RA_OF_ASC_NODE>25.3694</RA_OF_ASC_NODE><ARG_OF_PERICENTER>94.5580</ARG_OF_PERICENTER><MEAN_ANOMALY>265.5784</MEAN_ANOMALY></meanElements><tleParameters><EPHEMERIS_TYPE>0</EPHEMERIS_TYPE><CLASSIFICATION_TYPE>U</CLASSIFICATION_TYPE><NORAD_CAT_ID>55820</NORAD_CAT_ID><ELEMENT_SET_NO>999</ELEMENT_SET_NO><REV_AT_EPOCH>9688</REV_AT_EPOCH><BSTAR>.68846E-3</BSTAR><MEAN_MOTION_DOT>.268E-5</MEAN_MOTION_DOT><MEAN_MOTION_DDOT>0</MEAN_MOTION_DDOT></tleParameters></data></segment></body></omm>
<omm id="CCSDS_OMM_VERS" version="2.0">
<header><CREATION_DATE/><ORIGINATOR/></header><body><segment><metadata><OBJECT_NAME>ONEWEB-0661</OBJECT_NAME><OBJECT_ID>2023-029AB</OBJECT_ID><CENTER_NAME>EARTH</CENTER_NAME><REF_FRAME>TEME</REF_FRAME><TIME_SYSTEM>UTC</TIME_SYSTEM><MEAN_ELEMENT_THEORY>SGP4</MEAN_ELEMENT_THEORY></metadata><data><meanElements><EPOCH>2025-02-20T20:51:05.007744</EPOCH><MEAN_MOTION>13.14503498</MEAN_MOTION><ECCENTRICITY>.0001953</ECCENTRICITY><INCLINATION>87.9033</INCLINATION><RA_OF_ASC_NODE>25.4469</RA_OF_ASC_NODE><ARG_OF_PERICENTER>96.4758</ARG_OF_PERICENTER><MEAN_ANOMALY>263.6594</MEAN_ANOMALY></meanElements><tleParameters><EPHEMERIS_TYPE>0</EPHEMERIS_TYPE><CLASSIFICATION_TYPE>U</CLASSIFICATION_TYPE><NORAD_CAT_ID>55821</NORAD_CAT_ID><ELEMENT_SET_NO>999</ELEMENT_SET_NO><REV_AT_EPOCH>9684</REV_AT_EPOCH><BSTAR>-.44525E-3</BSTAR><MEAN_MOTION_DOT>-.152E-5</MEAN_MOTION_DOT><MEAN_MOTION_DDOT>0</MEAN_MOTION_DDOT></tleParameters></data></segment></body></omm>
<omm id="CCSDS_OMM_VERS" version="2.0">
<header><CREATION_DATE/><ORIGINATOR/></header><body><segment><metadata><OBJECT_NAME>ONEWEB-0662</OBJECT_NAME><OBJECT_ID>2023-029AC</OBJECT_ID><CENTER_NAME>EARTH</CENTER_NAME><REF_FRAME>TEME</REF_FRAME><TIME_SYSTEM>UTC</TIME_SYSTEM><MEAN_ELEMENT_THEORY>SGP4</MEAN_ELEMENT_THEORY></metadata><data><meanElements><EPOCH>2025-02-20T10:43:39.948960</EPOCH><MEAN_MOTION>13.14503954</MEAN_MOTION><ECCENTRICITY>.0002102</ECCENTRICITY><INCLINATION>87.9031</INCLINATION><RA_OF_ASC_NODE>25.5379</RA_OF_ASC_NODE><ARG_OF_PERICENTER>93.7655</ARG_OF_PERICENTER><MEAN_ANOMALY>266.3715</MEAN_ANOMALY></meanElements><tleParameters><EPHEMERIS_TYPE>0</EPHEMERIS_TYPE><CLASSIFICATION_TYPE>U</CLASSIFICATION_TYPE><NORAD_CAT_ID>55822</NORAD_CAT_ID><ELEMENT_SET_NO>999</ELEMENT_SET_NO><REV_AT_EPOCH>9614</REV_AT_EPOCH><BSTAR>.97872E-3</BSTAR><MEAN_MOTION_DOT>.376E-5</MEAN_MOTION_DOT><MEAN_MOTION_DDOT>0</MEAN_MOTION_DDOT></tleParameters></data></segment></body></omm>
<omm id="CCSDS_OMM_VERS" version="2.0">
<header><CREATION_DATE/><ORIGINATOR/></header><body><segment><metadata><OBJECT_NAME>ONEWEB-0663</OBJECT_NAME><OBJECT_ID>2023-029AD</OBJECT_ID><CENTER_NAME>EARTH</CENTER_NAME><REF_FRAME>TEME</REF_FRAME><TIME_SYSTEM>UTC</TIME_SYSTEM><MEAN_ELEMENT_THEORY>SGP4</MEAN_ELEMENT_THEORY></metadata><data><meanElements><EPOCH>2025-02-20T14:30:41.564736</EPOCH><MEAN_MOTION>13.20823933</MEAN_MOTION><ECCENTRICITY>.0002187</ECCENTRICITY><INCLINATION>87.9308</INCLINATION><RA_OF_ASC_NODE>10.2973</RA_OF_ASC_NODE><ARG_OF_PERICENTER>91.6816</ARG_OF_PERICENTER><MEAN_ANOMALY>268.4567</MEAN_ANOMALY></meanElements><tleParameters><EPHEMERIS_TYPE>0</EPHEMERIS_TYPE><CLASSIFICATION_TYPE>U</CLASSIFICATION_TYPE><NORAD_CAT_ID>55823</NORAD_CAT_ID><ELEMENT_SET_NO>999</ELEMENT_SET_NO><REV_AT_EPOCH>9757</REV_AT_EPOCH><BSTAR>.2385E-3</BSTAR><MEAN_MOTION_DOT>.11E-5</MEAN_MOTION_DOT><MEAN_MOTION_DDOT>0</MEAN_MOTION_DDOT></tleParameters></data></segment></body></omm>

</ndm>
